04203   12.3   0.15 K134I 189.28559  260.90059  341.30773   28.56473  0.1338974  0.23418793   2.6067120  0 MPO253391   760  16 1982-2013 0.49 M-v 38h MPCLINUX   0000   (4203) Brucato            20130129
04204   13.0   0.15 K134I  98.54888  323.52491  222.79261    3.81598  0.0855756  0.28836485   2.2690349  0 MPO234865  1202  18 1954-2012 0.51 M-v 38h MPCLINUX   0000   (4204) Barsig             20120720
04205   14.3   0.15 K134I  70.44224  110.00439  276.57590   16.48048  0.1493704  0.43441958   1.7266188  0 MPO253391   619  17 1980-2013 0.51 M-v 38h MPCLINUX   0005   (4205) David Hughes       20130129
04206   12.2   0.15 K134I 212.84091   38.75777  249.84134    1.16981  0.0181271  0.20368233   2.8608855  0 MPO253391  1167  23 1979-2013 0.51 M-v 38h MPCLINUX   0000   (4206) Verulamium         20130210
04207   11.5   0.15 K134I 251.45181  219.07110  261.42241    9.03710  0.0565143  0.18810557   3.0167196  0 MPO250246   863  21 1931-2012 0.54 M-v 38h MPCLINUX   0000   (4207) Chernova           20121210
04208   11.3   0.15 K134I 214.95121  219.17915  147.69079   16.76229  0.0773973  0.17165633   3.2064872  0 MPO250246   844  19 1983-2013 0.58 M-v 38h MPCLINUX   0000   (4208) Kiselev            20130113
04209   11.2   0.15 K134I 274.05279   12.83334  330.38494   21.62052  0.0854562  0.17576644   3.1563034  0 MPO233538   840  15 1969-2012 0.54 M-v 38h MPCLINUX   0000   (4209) Briggs             20120623
04210   12.4   0.15 K134I  77.32850  285.36581  159.92726   10.44078  0.0779006  0.19081436   2.9881015  0 MPO253391   935  19 1953-2013 0.53 M-v 38h MPCLINUX   0000   (4210) Isobelthompson     20130216
04211   11.7   0.15 K134I 175.59780  317.13722   24.35295    0.58750  0.2036355  0.17307241   3.1889728  0 MPO253391  1238  22 1954-2013 0.56 M-v 38h MPCLINUX   0000   (4211) Rosniblett         20130216
04212   11.1   0.15 K134I 215.71913  343.50791   22.30248   14.87365  0.2499719  0.17638456   3.1489251  0 MPO253391   833  18 1948-2013 0.54 M-v 38h MPCLINUX   0000   (4212) Sansyu-Asuke       20130206
04213   13.5   0.15 K134I 216.16693  219.82691  253.29041    3.41347  0.0761316  0.26701076   2.3884540  0 MPO240228  1019  20 1969-2012 0.57 M-v 38h MPCLINUX   0000   (4213) Njord              20120906
04214   12.7   0.15 K134I 230.21687   83.79121   13.97237    3.54768  0.1293048  0.26200997   2.4187492  0 MPO250246   984  21 1953-2012 0.54 M-v 38h MPCLINUX   0000   (4214) Veralynn           20120906
04215   12.5   0.15 K134I 145.70954  279.92616  246.81362    5.75435  0.0625411  0.26231429   2.4168781  0 MPO240228  1143  18 1982-2012 0.55 M-v 38h MPCLINUX   0000   (4215) Kamo               20120908
04216   13.9   0.15 K134I 237.24859   49.58502  202.60877    4.45565  0.1698633  0.27228818   2.3574918  0 MPO253391   873  19 1974-2013 0.56 M-v 38h MPCLINUX   0000   (4216) Neunkirchen        20130131
04217   12.2   0.15 K134I 184.45240  348.61163  355.45882   23.14594  0.2129431  0.28014794   2.3131889  0 MPO253391   769  18 1944-2013 0.47 M-v 38h MPCLINUX   0007   (4217) Engelhardt         20130214
04218   13.7   0.15 K134I  80.62818   36.84590  209.66471    4.90224  0.1452692  0.29267894   2.2466826  0 MPO236416  1029  17 1949-2012 0.55 M-v 38h MPCLINUX   0000   (4218) Demottoni          20120812
04219   13.5   0.15 K134I 137.42018   64.79959  140.66016    3.08594  0.1239605  0.25448772   2.4661803  0 MPO240228   881  18 1978-2012 0.56 M-v 38h MPCLINUX   0000   (4219) Nakamura           20120904
04220   13.3   0.15 K134I 172.30520  233.03694  221.04465    6.98804  0.1921755  0.20983700   2.8046672  0 MPO234865   828  18 1953-2012 0.61 M-v 38h MPCLINUX   0000   (4220) Flood              20120716
04221   12.5   0.15 K134I 298.38131   39.08875  187.97667   17.19362  0.1262850  0.23257073   2.6187820  0 MPO253391   947  19 1954-2013 0.53 M-v 38h MPCLINUX   0000   (4221) Picasso            20130212
04222   12.2   0.15 K134I  31.89657  217.50199  206.88191    3.74107  0.2954455  0.27062813   2.3671226  0 MPO253391   918  19 1968-2013 0.56 M-v 38h MPCLINUX   0000   (4222) Nancita            20130215
04223   10.7   0.15 K134I 166.44363   84.68742  269.23969    9.24959  0.1097712  0.18926388   3.0043986  0 MPO253391  1001  21 1953-2013 0.55 M-v 38h MPCLINUX   0000   (4223) Shikoku            20130221
04224   11.3   0.15 K134I 235.20626  179.90687  200.94564   12.11728  0.1876255  0.19774719   2.9178469  0 MPO234865   896  20 1961-2012 0.61 M-v 38h MPCLINUX   0000   (4224) Susa               20120720
04225   12.8   0.15 K134I 251.93856  258.49846   62.03754    3.48318  0.1081187  0.29374072   2.2412654  0 MPO250246  1073  18 1954-2013 0.49 M-v 38h MPCLINUX   0000   (4225) Hobart             20130124
04226   11.5   0.15 K134I 310.22211  131.24493  212.33963    5.37551  0.2584741  0.20342978   2.8632528  0 MPO234865  1134  24 1931-2012 0.53 M-v 38h MPCLINUX   0000   (4226) Damiaan            20120723
04227   13.4   0.15 K134I  65.01246   20.27567  133.02930    2.70728  0.1518668  0.26572198   2.3961706  0 MPO250246  1061  19 1942-2013 0.52 M-v 38h MPCLINUX   0000   (4227) Kaali              20130112
04228   14.0   0.15 K134I 261.27032  112.80679  223.28795    5.26719  0.1370658  0.28183307   2.3039590  0 MPO253391   977  20 1968-2013 0.54 M-v 38h MPCLINUX   0000   (4228) Nemiro             20130213
04229   13.5   0.15 K134I 209.88822  323.32056  161.21667    5.16490  0.1774810  0.26956086   2.3733666  0 MPO253391   844  19 1938-2011 0.60 M-v 38h MPCLINUX   0000   (4229) Plevitskaya        20110525
04230   11.7   0.15 K134I 196.87324   23.76940  160.56749    3.09844  0.1327003  0.12576805   3.9453829  0 MPO250246  1025  24 1951-2013 0.52 M-v 38h MPCLINUX   0008   (4230) van den Bergh      20130122
04231   13.2   0.15 K134I 356.52606   76.39733  261.11059    8.59495  0.0655309  0.29016606   2.2596351  0 MPO234865   804  17 1976-2012 0.57 M-v 38h MPCLINUX   0000   (4231) Fireman            20120724
04232   13.6   0.15 K134I 198.42723  277.82038  182.55978   21.70088  0.0832828  0.36582652   1.9362106  0 MPO236416   727  16 1977-2012 0.51 M-v 38h MPCLINUX   0006   (4232) Aparicio           20120618
04233   13.6   0.15 K134I 258.78685  112.50911  184.86827    3.82992  0.1879954  0.26525712   2.3989692  0 MPO253391  1076  22 1976-2013 0.56 M-v 38h MPCLINUX   0000   (4233) Pal'chikov         20130214
04234   12.4   0.15 K134I   7.08346  227.55547   43.76359    1.68491  0.1696331  0.17175315   3.2052820  0 MPO244216  1061  23 1939-2012 0.57 M-v 38h MPCLINUX   0000   (4234) Evtushenko         20120723
04235   12.1   0.15 K134I 357.50589  302.90143  331.57577    1.22320  0.0373809  0.19128660   2.9831815  0 MPO250246  1277  22 1963-2012 0.53 M-v 38h MPCLINUX   0000   (4235) Tatishchev         20120723
04236   11.3   0.15 K134I 165.80733  143.05976  349.06690    7.29131  0.0309591  0.15413844   3.4450490  0 MPO240228  1068  25 1934-2012 0.57 M-v 38h MPCLINUX   0000   (4236) Lidov              20120906
04237   12.9   0.15 K134I 276.91437  345.33589   29.29175    3.16026  0.0929430  0.22892878   2.6464831  0 MPO234865  1053  21 1954-2012 0.51 M-v 38h MPCLINUX   0000   (4237) Raushenbakh        20120730
04238   13.1   0.15 K134I 303.45595   40.93606  144.99572    1.84778  0.0738219  0.26390657   2.4071468  0 MPO253391  1230  22 1978-2013 0.53 M-v 38h MPCLINUX   0000   (4238) Audrey             20130131
04239   14.1   0.15 K134I  79.54514   19.80169  294.88795    1.27860  0.1856350  0.30735630   2.1745762  0 MPO250246  1206  20 1977-2013 0.56 M-v 38h MPCLINUX   0000   (4239) Goodman            20130123
04240   13.4   0.15 K134I 332.13587   20.69418  321.23750    1.15147  0.1066331  0.19569636   2.9381969  0 MPO250246   874  21 1954-2012 0.58 M-v 38h MPCLINUX   0000   (4240) Grun               20120908
04241   14.8   0.15 K134I 292.09891  119.38845  247.17315    0.97329  0.0717831  0.19470620   2.9481496  0 MPO234865   463  16 1971-2012 0.60 M-v 38h MPCLINUX   0000   (4241) Pappalardo         20120616
04242   12.7   0.15 K134I 247.59225  211.21560   29.30670    0.28387  0.1471928  0.17889130   3.1194396  0 MPO250246  1153  24 1951-2013 0.54 M-v 38h MPCLINUX   0000   (4242) Brecher            20130101
04243   12.5   0.15 K134I 248.03759  356.08560  345.16986    9.01092  0.1196382  0.18710944   3.0274171  0 MPO253392   870  20 1976-2013 0.56 M-v 38h MPCLINUX   0000   (4243) Nankivell          20130209
04244   12.8   0.15 K134I 194.87335  270.14079   86.02841    1.76839  0.1693470  0.17203944   3.2017250  0 MPO253392  1001  20 1981-2013 0.53 M-v 38h MPCLINUX   0000   (4244) Zakharchenko       20130214
04245   13.7   0.15 K134I 232.53969   25.94299  359.08922    1.94460  0.1677078  0.26924339   2.3752319  0 MPO233538  1047  17 1954-2012 0.55 M-v 38h MPCLINUX   0000   (4245) Nairc              20120611
04246   13.5   0.15 K134I 160.36443  239.54430   37.46146    3.07296  0.1744316  0.29862606   2.2167544  0 MPO253392  1223  19 1968-2013 0.54 M-v 38h MPCLINUX   0000   (4246) Telemann           20130209
04247   13.3   0.15 K134I  74.45460  288.63348  124.54854    2.07465  0.2288002  0.17393760   3.1783892  0 MPO253392   791  19 1954-2013 0.55 M-v 38h MPCLINUX   0000   (4247) Grahamsmith        20130215
04248   14.0   0.15 K134I 254.34917  118.63516  305.72942    5.82580  0.1032103  0.28176706   2.3043188  0 MPO240228   739  15 1978-2012 0.57 M-v 38h MPCLINUX   0000   (4248) Ranald             20120912
04249   12.1   0.15 K134I 118.97493  164.85878  319.96640    4.70294  0.1023875  0.19255577   2.9700587  0 MPO250246   886  19 1950-2012 0.52 M-v 38h MPCLINUX   0000   (4249) Kremze             20120624
04250   11.9   0.15 K134I  85.67405  262.22144   59.75527    2.53306  0.1122879  0.17469957   3.1691405  0 MPO253392  1361  22 1977-2013 0.53 M-v 38h MPCLINUX   0000   (4250) Perun              20130218
04251   13.9   0.15 K134I 169.19327  132.45527  115.42751    3.33781  0.1756979  0.26431272   2.4046803  0 MPO250246   946  20 1951-2013 0.57 M-v 38h MPCLINUX   0000   (4251) Kavasch            20130114
